start=new Date('2022-12-03T00:00:00.000Z').valueOf();
sats=[{"MEAN_ELEMENT_THEORY":"SGP4","TLE_LINE2":"2 51808  53.2160 293.7401 0002430  33.2168 326.8976 15.08842536 43896","MEAN_MOTION_DOT":"0.00001528","REV_AT_EPOCH":"4389","TLE_LINE1":"1 51808U 22017AS  22336.90577838  .00001528  00000-0  11410-3 0  9993","COUNTRY_CODE":"US","FILE":"3679625","CENTER_NAME":"EARTH","ARG_OF_PERICENTER":"33.2168","RA_OF_ASC_NODE":"293.7401","PERIAPSIS":"538.057","OBJECT_ID":"2022-017AS","PERIOD":"95.437","EPHEMERIS_TYPE":"0","SITE":"AFWTR","INCLINATION":"53.2160","ECCENTRICITY":"0.00024300","ELEMENT_SET_NO":"999","OBJECT_TYPE":"PAYLOAD","MEAN_MOTION":"15.08842536","CLASSIFICATION_TYPE":"U","REF_FRAME":"TEME","SEMIMAJOR_AXIS":"6917.873","TIME_SYSTEM":"UTC","NORAD_CAT_ID":"51808","RCS_SIZE":"LARGE","MEAN_ANOMALY":"326.8976","OBJECT_NAME":"STARLINK-3609","MEAN_MOTION_DDOT":"0.0000000000000","APOAPSIS":"541.419","LAUNCH_DATE":"2022-02-25","DECAY_DATE":null,"EPOCH":"2022-12-02T21:44:19.252032","GP_ID":"219381918","BSTAR":"0.00011410000000"},{"CENTER_NAME":"EARTH","COUNTRY_CODE":"US","FILE":"3679625","MEAN_ELEMENT_THEORY":"SGP4","MEAN_MOTION_DOT":"0.00002037","TLE_LINE2":"2 51809  53.2154 295.1787 0002684  27.1403 332.9729 15.08839020 43942","REV_AT_EPOCH":"4394","TLE_LINE1":"1 51809U 22017AT  22336.58561990  .00002037  00000-0  14605-3 0  9995","SITE":"AFWTR","INCLINATION":"53.2154","PERIOD":"95.438","EPHEMERIS_TYPE":"0","RA_OF_ASC_NODE":"295.1787","PERIAPSIS":"537.892","OBJECT_ID":"2022-017AT","ARG_OF_PERICENTER":"27.1403","TIME_SYSTEM":"UTC","NORAD_CAT_ID":"51809","MEAN_ANOMALY":"332.9729","RCS_SIZE":"LARGE","SEMIMAJOR_AXIS":"6917.883","CLASSIFICATION_TYPE":"U","REF_FRAME":"TEME","ECCENTRICITY":"0.00026840","ELEMENT_SET_NO":"999","MEAN_MOTION":"15.08839020","OBJECT_TYPE":"PAYLOAD","BSTAR":"0.00014605000000","LAUNCH_DATE":"2022-02-25","APOAPSIS":"541.605","DECAY_DATE":null,"EPOCH":"2022-12-02T14:03:17.559360","GP_ID":"219382167","MEAN_MOTION_DDOT":"0.0000000000000","OBJECT_NAME":"STARLINK-3607"},{"RA_OF_ASC_NODE":"286.3133","OBJECT_ID":"2022-017AU","PERIAPSIS":"537.974","ARG_OF_PERICENTER":"34.3352","SITE":"AFWTR","INCLINATION":"53.2163","EPHEMERIS_TYPE":"0","PERIOD":"95.437","COUNTRY_CODE":"US","FILE":"3678914","TLE_LINE2":"2 51810  53.2163 286.3133 0002542  34.3352 325.7804 15.08844111 44040","MEAN_MOTION_DOT":"0.00001219","REV_AT_EPOCH":"4404","MEAN_ELEMENT_THEORY":"SGP4","TLE_LINE1":"1 51810U 22017AU  22336.33357327  .00001219  00000-0  94672-4 0  9991","CENTER_NAME":"EARTH","DECAY_DATE":null,"LAUNCH_DATE":"2022-02-25","APOAPSIS":"541.491","GP_ID":"219319626","EPOCH":"2022-12-02T08:00:20.730528","MEAN_MOTION_DDOT":"0.0000000000000","OBJECT_NAME":"STARLINK-3613","BSTAR":"0.00009467200000","REF_FRAME":"TEME","CLASSIFICATION_TYPE":"U","ELEMENT_SET_NO":"999","ECCENTRICITY":"0.00025420","MEAN_MOTION":"15.08844111","OBJECT_TYPE":"PAYLOAD","NORAD_CAT_ID":"51810","TIME_SYSTEM":"UTC","MEAN_ANOMALY":"325.7804","RCS_SIZE":"LARGE","SEMIMAJOR_AXIS":"6917.868"},{"TLE_LINE1":"1 51811U 22017AV  22336.18082071  .00001247  00000-0  96453-4 0  9996","TLE_LINE2":"2 51811  53.2178 296.9962 0002555  36.6434 323.4732 15.08840489 43783","MEAN_MOTION_DOT":"0.00001247","REV_AT_EPOCH":"4378","MEAN_ELEMENT_THEORY":"SGP4","FILE":"3679245","COUNTRY_CODE":"US","CENTER_NAME":"EARTH","ARG_OF_PERICENTER":"36.6434","PERIAPSIS":"537.976","OBJECT_ID":"2022-017AV","RA_OF_ASC_NODE":"296.9962","EPHEMERIS_TYPE":"0","PERIOD":"95.438","INCLINATION":"53.2178","SITE":"AFWTR","MEAN_MOTION":"15.08840489","OBJECT_TYPE":"PAYLOAD","ELEMENT_SET_NO":"999","ECCENTRICITY":"0.00025550","REF_FRAME":"TEME","CLASSIFICATION_TYPE":"U","SEMIMAJOR_AXIS":"6917.879","MEAN_ANOMALY":"323.4732","RCS_SIZE":"LARGE","NORAD_CAT_ID":"51811","TIME_SYSTEM":"UTC","OBJECT_NAME":"STARLINK-3569","MEAN_MOTION_DDOT":"0.0000000000000","GP_ID":"219350555","EPOCH":"2022-12-02T04:20:22.909344","DECAY_DATE":null,"LAUNCH_DATE":"2022-02-25","APOAPSIS":"541.511","BSTAR":"0.00009645300000"},{"PERIAPSIS":"537.640","OBJECT_ID":"2022-017AW","RA_OF_ASC_NODE":"283.9825","ARG_OF_PERICENTER":"30.4213","SITE":"AFWTR","INCLINATION":"53.2194","PERIOD":"95.437","EPHEMERIS_TYPE":"0","FILE":"3679625","COUNTRY_CODE":"US","TLE_LINE1":"1 51812U 22017AW  22336.85150512  .00000225  00000-0  32255-4 0  9992","MEAN_ELEMENT_THEORY":"SGP4","MEAN_MOTION_DOT":"0.00000225","TLE_LINE2":"2 51812  53.2194 283.9825 0003032  30.4213 329.6955 15.08842477 44004","REV_AT_EPOCH":"4400","CENTER_NAME":"EARTH","EPOCH":"2022-12-02T20:26:10.042368","GP_ID":"219382418","APOAPSIS":"541.835","LAUNCH_DATE":"2022-02-25","DECAY_DATE":null,"MEAN_MOTION_DDOT":"0.0000000000000","OBJECT_NAME":"STARLINK-3610","BSTAR":"0.00003225500000","CLASSIFICATION_TYPE":"U","REF_FRAME":"TEME","MEAN_MOTION":"15.08842477","OBJECT_TYPE":"PAYLOAD","ECCENTRICITY":"0.00030320","ELEMENT_SET_NO":"999","MEAN_ANOMALY":"329.6955","RCS_SIZE":"LARGE","TIME_SYSTEM":"UTC","NORAD_CAT_ID":"51812","SEMIMAJOR_AXIS":"6917.873"},{"OBJECT_TYPE":"PAYLOAD","MEAN_MOTION":"15.08847397","ELEMENT_SET_NO":"999","ECCENTRICITY":"0.00028580","CLASSIFICATION_TYPE":"U","REF_FRAME":"TEME","SEMIMAJOR_AXIS":"6917.858","RCS_SIZE":"LARGE","MEAN_ANOMALY":"327.4256","TIME_SYSTEM":"UTC","NORAD_CAT_ID":"51813","MEAN_MOTION_DDOT":"0.0000000000000","OBJECT_NAME":"STARLINK-3552","EPOCH":"2022-12-02T19:55:44.629824","GP_ID":"219382668","APOAPSIS":"541.700","LAUNCH_DATE":"2022-02-25","DECAY_DATE":null,"BSTAR":"0.00015225000000","TLE_LINE1":"1 51813U 22017AX  22336.83037766  .00002136  00000-0  15225-3 0  9996","MEAN_ELEMENT_THEORY":"SGP4","MEAN_MOTION_DOT":"0.00002136","TLE_LINE2":"2 51813  53.2169 284.0802 0002858  32.6912 327.4256 15.08847397 44005","REV_AT_EPOCH":"4400","FILE":"3679625","COUNTRY_CODE":"US","CENTER_NAME":"EARTH","ARG_OF_PERICENTER":"32.6912","PERIAPSIS":"537.746","OBJECT_ID":"2022-017AX","RA_OF_ASC_NODE":"284.0802","PERIOD":"95.437","EPHEMERIS_TYPE":"0","SITE":"AFWTR","INCLINATION":"53.2169"},{"INCLINATION":"53.2187","SITE":"AFWTR","EPHEMERIS_TYPE":"0","PERIOD":"95.438","RA_OF_ASC_NODE":"285.2148","PERIAPSIS":"538.254","OBJECT_ID":"2022-017AY","ARG_OF_PERICENTER":"36.9672","CENTER_NAME":"EARTH","COUNTRY_CODE":"US","FILE":"3679625","MEAN_MOTION_DOT":"-0.00000532","TLE_LINE2":"2 51814  53.2187 285.2148 0002199  36.9672 323.1471 15.08830250 43966","REV_AT_EPOCH":"4396","MEAN_ELEMENT_THEORY":"SGP4","TLE_LINE1":"1 51814U 22017AY  22336.57919368 -.00000532  00000-0 -15315-4 0  9996","BSTAR":"-0.00001531500000","DECAY_DATE":null,"LAUNCH_DATE":"2022-02-25","APOAPSIS":"541.296","GP_ID":"219383420","EPOCH":"2022-12-02T13:54:02.333952","OBJECT_NAME":"STARLINK-3599","MEAN_MOTION_DDOT":"0.0000000000000","NORAD_CAT_ID":"51814","TIME_SYSTEM":"UTC","RCS_SIZE":"LARGE","MEAN_ANOMALY":"323.1471","SEMIMAJOR_AXIS":"6917.910","CLASSIFICATION_TYPE":"U","REF_FRAME":"TEME","ELEMENT_SET_NO":"999","ECCENTRICITY":"0.00021990","OBJECT_TYPE":"PAYLOAD","MEAN_MOTION":"15.08830250"},{"PERIOD":"95.437","EPHEMERIS_TYPE":"0","SITE":"AFWTR","INCLINATION":"53.2169","ARG_OF_PERICENTER":"53.5948","PERIAPSIS":"538.486","OBJECT_ID":"2022-017AZ","RA_OF_ASC_NODE":"284.0105","CENTER_NAME":"EARTH","TLE_LINE1":"1 51815U 22017AZ  22336.84782097  .00001670  00000-0  12301-3 0  9997","MEAN_ELEMENT_THEORY":"SGP4","TLE_LINE2":"2 51815  53.2169 284.0105 0001811  53.5948 306.5211 15.08842110 44009","REV_AT_EPOCH":"4400","MEAN_MOTION_DOT":"0.00001670","FILE":"3679625","COUNTRY_CODE":"US","BSTAR":"0.00012301000000","MEAN_MOTION_DDOT":"0.0000000000000","OBJECT_NAME":"STARLINK-3604","EPOCH":"2022-12-02T20:20:51.731808","GP_ID":"219383170","LAUNCH_DATE":"2022-02-25","APOAPSIS":"540.992","DECAY_DATE":null,"SEMIMAJOR_AXIS":"6917.874","MEAN_ANOMALY":"306.5211","RCS_SIZE":"LARGE","TIME_SYSTEM":"UTC","NORAD_CAT_ID":"51815","OBJECT_TYPE":"PAYLOAD","MEAN_MOTION":"15.08842110","ECCENTRICITY":"0.00018110","ELEMENT_SET_NO":"999","CLASSIFICATION_TYPE":"U","REF_FRAME":"TEME"},{"MEAN_MOTION":"15.08841012","OBJECT_TYPE":"PAYLOAD","ECCENTRICITY":"0.00022750","ELEMENT_SET_NO":"999","REF_FRAME":"TEME","CLASSIFICATION_TYPE":"U","SEMIMAJOR_AXIS":"6917.877","RCS_SIZE":"MEDIUM","MEAN_ANOMALY":"313.5587","TIME_SYSTEM":"UTC","NORAD_CAT_ID":"51816","MEAN_MOTION_DDOT":"0.0000000000000","OBJECT_NAME":"STARLINK-3603","EPOCH":"2022-12-02T13:48:43.447968","GP_ID":"219381919","APOAPSIS":"541.316","LAUNCH_DATE":"2022-02-25","DECAY_DATE":null,"BSTAR":"0.00009274700000","TLE_LINE1":"1 51816U 22017BA  22336.57550287  .00001188  00000-0  92747-4 0  9999","MEAN_ELEMENT_THEORY":"SGP4","TLE_LINE2":"2 51816  53.2171 285.2276 0002275  46.5595 313.5587 15.08841012 44015","MEAN_MOTION_DOT":"0.00001188","REV_AT_EPOCH":"4401","FILE":"3679625","COUNTRY_CODE":"US","CENTER_NAME":"EARTH","ARG_OF_PERICENTER":"46.5595","OBJECT_ID":"2022-017BA","PERIAPSIS":"538.168","RA_OF_ASC_NODE":"285.2276","PERIOD":"95.437","EPHEMERIS_TYPE":"0","INCLINATION":"53.2171","SITE":"AFWTR"},{"SEMIMAJOR_AXIS":"6717.892","MEAN_ANOMALY":"343.0992","RCS_SIZE":"LARGE","NORAD_CAT_ID":"51817","TIME_SYSTEM":"UTC","OBJECT_TYPE":"PAYLOAD","MEAN_MOTION":"15.76715005","ELEMENT_SET_NO":"999","ECCENTRICITY":"0.00025980","CLASSIFICATION_TYPE":"U","REF_FRAME":"TEME","BSTAR":"-0.00001544300000","MEAN_MOTION_DDOT":"0.0000000000000","OBJECT_NAME":"STARLINK-3596","GP_ID":"219382168","EPOCH":"2022-12-02T15:37:37.818624","DECAY_DATE":null,"APOAPSIS":"341.503","LAUNCH_DATE":"2022-02-25","CENTER_NAME":"EARTH","TLE_LINE1":"1 51817U 22017BB  22336.65113216 -.00003182  00000-0 -15443-4 0  9992","REV_AT_EPOCH":"4543","TLE_LINE2":"2 51817  53.1988 187.8906 0002598  17.0116 343.0992 15.76715005 45430","MEAN_MOTION_DOT":"-0.00003182","MEAN_ELEMENT_THEORY":"SGP4","FILE":"3679625","COUNTRY_CODE":"US","EPHEMERIS_TYPE":"0","PERIOD":"91.329","SITE":"AFWTR","INCLINATION":"53.1988","ARG_OF_PERICENTER":"17.0116","PERIAPSIS":"338.012","OBJECT_ID":"2022-017BB","RA_OF_ASC_NODE":"187.8906"}];
